ONEWEB-0709             
1 55172U 23004AJ  25162.85981201  .00000211  00000+0  55944-3 0  9992
2 55172  87.8840  94.9114 0002900  87.5074 272.6386 13.11420315117337
ONEWEB-0710             
1 55173U 23004AK  25162.78714260  .00000088  00000+0  19449-3 0  9996
2 55173  87.9070  79.6291 0002021  75.1296 285.0059 13.17650799118808
ONEWEB-0711             
1 55174U 23004AL  25162.83097772 -.00000486  00000+0 -14070-2 0  9993
2 55174  87.8837  94.8844 0002159  56.4475 303.6859 13.11414217117299
ONEWEB-0713             
1 55175U 23004AM  25162.84963193 -.00000249  00000+0 -73863-3 0  9997
2 55175  87.8840  94.8888 0002026  70.9700 289.1647 13.11420166117289
ONEWEB-0715             
1 55176U 23004AN  25162.84454790 -.00000458  00000+0 -13284-2 0  9998
2 55176  87.8839  94.8900 0002389  78.8722 281.2675 13.11418080117327
ONEWEB-0716             
1 55177U 23004AP  25162.78038667  .00000008  00000+0 -11558-4 0  9997
2 55177  87.9071  79.6299 0001818  83.4232 276.7107 13.17651520118800
ONEWEB-0717             
1 55178U 23004AQ  25162.76352296  .00000074  00000+0  15737-3 0  9997
2 55178  87.9069  79.5921 0002336  59.4865 300.6497 13.17650136118856
ONEWEB-0719             
1 55179U 23004AR  25162.77363729  .00000072  00000+0  15298-3 0  9992
2 55179  87.9068  79.5743 0001743  78.6171 281.5156 13.17650530118804
ONEWEB-0530             
1 55796U 23029A   25162.48823047 -.00000006  00000+0 -45757-4 0  9999
2 55796  87.9260 348.3122 0001622  72.1084 288.0226 13.20773453112920
ONEWEB-0534             
1 55797U 23029B   25162.77863600  .00000074  00000+0  15103-3 0  9995
2 55797  87.9261 348.2620 0001729  93.5063 266.6268 13.20771647112253
ONEWEB-0556             
1 55798U 23029C   25162.55767501  .00000056  00000+0  10635-3 0  9990
2 55798  87.9260 348.2980 0000986  91.4458 268.6789 13.20771241112914
ONEWEB-0562             
1 55799U 23029D   25162.54505152  .00000072  00000+0  14484-3 0  9996
2 55799  87.9261 348.2938 0001286  58.6106 301.5153 13.20772276112908
ONEWEB-0563             
1 55800U 23029E   25162.46298199  .00000132  00000+0  29198-3 0  9995
2 55800  87.9260 348.3243 0001771  99.9734 260.1599 13.20771730112889
ONEWEB-0564             
1 55801U 23029F   25162.75969304  .00000048  00000+0  84968-4 0  9994
2 55801  87.9261 348.2544 0001630  78.8464 281.2853 13.20772176112257
ONEWEB-0638             
1 55802U 23029G   25162.01438970  .00000252  00000+0  64465-3 0  9990
2 55802  87.9038   3.6104 0001239  83.5542 276.5729 13.14505266111344
ONEWEB-0639             
1 55803U 23029H   25162.66687445  .00000002  00000+0 -27702-4 0  9993
2 55803  87.9225  18.6429 0002274 115.8789 244.2578 13.19726235110036
ONEWEB-0640             
1 55804U 23029J   25162.02390364  .00000116  00000+0  27791-3 0  9997
2 55804  87.9036   3.5964 0001197 105.3445 254.7817 13.14504607111338
ONEWEB-0641             
1 55805U 23029K   25162.88958612  .00000022  00000+0  21576-4 0  9990
2 55805  87.9223  18.5707 0001904  91.6974 268.4377 13.19724097110073
ONEWEB-0642             
1 55806U 23029L   25162.88485509 -.00000046  00000+0 -14653-3 0  9996
2 55806  87.9227  18.6087 0002389 106.6513 253.4882 13.19726515110065
ONEWEB-0643             
1 55807U 23029M   25162.83106729 -.00000049  00000+0 -16649-3 0  9996
2 55807  87.9036   3.4179 0002491  98.6716 261.4696 13.14504684110739
ONEWEB-0644             
1 55808U 23029N   25162.88010695  .00000021  00000+0  19954-4 0  9999
2 55808  87.9228  18.6132 0002138  98.9499 261.1875 13.19726753110069
ONEWEB-0645             
1 55809U 23029P   25162.87616107  .00000000  00000+0 -31537-4 0  9998
2 55809  87.9226  18.6101 0001648  96.1047 264.0273 13.19724750110067
ONEWEB-0646             
1 55810U 23029Q   25162.83035928  .00000060  00000+0  11873-3 0  9997
2 55810  87.9225  18.6128 0002023  90.6645 269.4720 13.19726075110044
ONEWEB-0648             
1 55811U 23029R   25162.49488727 -.00000041  00000+0 -14621-3 0  9994
2 55811  87.9039   3.4602 0001984 117.4661 242.6671 13.14504123111400
ONEWEB-0649             
1 55812U 23029S   25162.86905429 -.00000013  00000+0 -63696-4 0  9995
2 55812  87.9223  18.5944 0001877 101.6823 258.4521 13.19726384110080
ONEWEB-0650             
1 55813U 23029T   25162.86431203  .00000075  00000+0  15536-3 0  9995
2 55813  87.9225  18.6047 0001927  91.3730 268.7624 13.19726676110055
ONEWEB-0652             
1 55814U 23029U   25162.62809756  .00000309  00000+0  79819-3 0  9996
2 55814  87.9038   3.4438 0001800  83.0031 277.1303 13.14502815110685
ONEWEB-0653             
1 55815U 23029V   25162.84057753  .00000154  00000+0  38003-3 0  9991
2 55815  87.9039   3.3907 0001567  84.8857 275.2452 13.14505356110746
ONEWEB-0654             
1 55816U 23029W   25162.83581903  .00000045  00000+0  87178-4 0  9997
2 55816  87.9037   3.3920 0001651  74.6557 285.4755 13.14505506110766
ONEWEB-0656             
1 55817U 23029X   25162.75338841  .00000101  00000+0  21773-3 0  9991
2 55817  87.9260 348.1961 0001716  75.3836 284.7487 13.20770954112258
ONEWEB-0657             
1 55818U 23029Y   25162.63212104  .00000067  00000+0  13553-3 0  9990
2 55818  87.9226  18.6559 0002472  73.2892 286.8511 13.19726808110034
ONEWEB-0658             
1 55819U 23029Z   25162.62738617  .00000099  00000+0  21410-3 0  9998
2 55819  87.9223  18.5901 0002138  97.7975 262.3401 13.19726990110044
ONEWEB-0660             
1 55820U 23029AA  25161.82408655 -.00001310  00000+0 -35688-2 0  9997
2 55820  87.9038   3.5644 0001563 100.3172 259.8133 13.14505494110614
ONEWEB-0661             
1 55821U 23029AB  25163.00075220  .00000255  00000+0  65201-3 0  9998
2 55821  87.9038   3.4014 0001542  97.2597 262.8708 13.14502110111443
ONEWEB-0662             
1 55822U 23029AC  25161.81775765 -.00000150  00000+0 -43875-3 0  9996
2 55822  87.9038   3.6434 0001684  99.8970 260.2350 13.14503686110647
ONEWEB-0663             
1 55823U 23029AD  25161.59843744  .00000025  00000+0  29692-4 0  9996
2 55823  87.9260 348.4811 0001778 104.8178 255.3153 13.20838639112098
ONEWEB-0664             
1 55824U 23029AE  25162.74075265 -.00000055  00000+0 -16669-3 0  9994
2 55824  87.9262 348.2753 0001401  88.0512 272.0782 13.20772658112241
ONEWEB-0665             
1 55825U 23029AF  25162.99757443  .00000195  00000+0  49144-3 0  9994
2 55825  87.9036   3.3763 0001745  97.3314 262.8014 13.14505176111465
ONEWEB-0666             
1 55826U 23029AG  25161.59808906  .00000028  00000+0  35851-4 0  9997
2 55826  87.9261 348.4912 0001923  78.5036 281.6313 13.20773334112108
ONEWEB-0667             
1 55827U 23029AH  25161.59177662 -.00000006  00000+0 -47165-4 0  9995
2 55827  87.9261 348.4244 0001657  94.8821 265.2502 13.20772475112095
ONEWEB-0669             
1 55828U 23029AJ  25161.58704898 -.00000007  00000+0 -49669-4 0  9994
2 55828  87.9260 348.4608 0001571  65.2538 294.8759 13.20771059112090
ONEWEB-0670             
1 55829U 23029AK  25162.51866567 -.00000174  00000+0 -50512-3 0  9994
2 55829  87.9040   3.4893 0001412  94.0178 266.1113 13.14504902111421
ONEWEB-0671             
1 55830U 23029AL  25162.85010238  .00000051  00000+0  95283-4 0  9996
2 55830  87.9225  18.6056 0001640  90.1359 269.9961 13.19725949110059
ONEWEB-0672             
1 55831U 23029AM  25161.96108692  .00000072  00000+0  14600-3 0  9996
2 55831  87.9261 348.3723 0001953  81.2441 278.8913 13.20770096112822
ONEWEB-0673             
1 55832U 23029AN  25162.67477576  .00000043  00000+0  74296-4 0  9992
2 55832  87.9223  18.6038 0001958  91.7969 268.3388 13.19727021110032
ONEWEB-0674             
1 55833U 23029AP  25162.79142765  .00000169  00000+0  42216-3 0  9990
2 55833  87.9037   3.4224 0001282  92.8417 267.2859 13.14504612110759
ONEWEB-0675             
1 55834U 23029AQ  25162.00822540  .00000118  00000+0  26311-3 0  9993
2 55834  87.9228  18.7844 0002154  83.1779 276.9599 13.19726125110671
ONEWEB-0720             
1 55835U 23029AR  25163.06175759  .00000035  00000+0  54601-4 0  9996
2 55835  87.9226  18.5715 0001858  99.8745 260.2597 13.19725429110717
ONEWEB-0537             
1 56046U 23043A   25162.78541591 -.00000068  00000+0 -21177-3 0  9995
2 56046  87.9045 302.5840 0002010  93.2691 266.8670 13.16595444110224
ONEWEB-0538             
1 56047U 23043B   25162.77907377 -.00000028  00000+0 -10645-3 0  9997
2 56047  87.9038 302.6051 0002162 100.3703 259.7671 13.16591972110239
ONEWEB-0546             
1 56048U 23043C   25162.84239994  .00000066  00000+0  13953-3 0  9994
2 56048  87.9049 302.5656 0002104  79.1504 280.9864 13.16593071110232
ONEWEB-0547             
1 56049U 23043D   25162.79124280 -.00000007  00000+0 -49084-4 0  9992
2 56049  87.9245 317.8512 0002020 100.0486 260.0876 13.21826007109291
ONEWEB-0548             
1 56050U 23043E   25162.79173950 -.00000092  00000+0 -27404-3 0  9997
2 56050  87.9037 302.6124 0001351 102.8968 257.2314 13.16592610110228
ONEWEB-0549             
1 56051U 23043F   25162.47978681  .00000045  00000+0  76840-4 0  9992
2 56051  87.9255 317.9228 0002133 102.3992 257.7381 13.21825476110163
ONEWEB-0550             
1 56052U 23043G   25162.84565780  .00000035  00000+0  52185-4 0  9991
2 56052  87.9253 317.8446 0001692  94.0762 266.0565 13.21825713109309
ONEWEB-0551             
1 56053U 23043H   25162.90816174  .00000069  00000+0  14805-3 0  9998
2 56053  87.9048 333.0491 0001948 100.4734 259.6616 13.15547646107714
ONEWEB-0552             
1 56054U 23043J   25162.83933629  .00000052  00000+0  93270-4 0  9992
2 56054  87.9250 317.8549 0001839 106.0518 254.0819 13.21827740109309
ONEWEB-0553             
1 56055U 23043K   25162.84874253  .00000046  00000+0  87131-4 0  9993
2 56055  87.9039 302.5891 0001791  86.6094 273.5241 13.16595320110245
ONEWEB-0554             
1 56056U 23043L   25162.83606743  .00000065  00000+0  13748-3 0  9993
2 56056  87.9034 302.6201 0001541  99.5350 260.5955 13.16595335110220
